NORAD_CAT_ID,OBJECT_NAME,OBJECT_TYPE,EPOCH,MEAN_MOTION,ECCENTRICITY,INCLINATION,RA_OF_ASC_NODE,ARG_OF_PERICENTER,MEAN_ANOMALY,BSTAR,MEAN_MOTION_DOT,MEAN_MOTION_DDOT,TLE_LINE0,TLE_LINE1,TLE_LINE2,SEMIMAJOR_AXIS,PERIOD,APOGEE,PERIGEE,DECAYED
53144.0,STARLINK-4100,PAYLOAD,2022-09-08 14:00:01,15.08797651,0.0001376999999999,53.2187,151.7506,50.3923,128.8139,0.0029516,0.00046945,0.0,0 STARLINK-4100,1 53144U 22083N   22251.58334491  .00046945  00000-0  29516-2 0  9994,2 53144  53.2187 151.7506 0001377  50.3923 128.8139 15.08797651  1305,6918.01,95.44,540.827,538.922,0.0
53144.0,STARLINK-4100,PAYLOAD,2022-09-08 22:00:00,15.08842752,0.0001495,53.219,150.2556,48.9186,141.8543,-0.00090644,-0.00014686,0.0,0 STARLINK-4100,1 53144U 22083N   22251.91667824 -.00014686  00000-0 -90644-3 0  9990,2 53144  53.2190 150.2556 0001495  48.9186 141.8543 15.08842752  1300,6917.871999999999,95.437,540.771,538.703,0.0
53144.0,STARLINK-4100,PAYLOAD,2022-09-09 14:00:01,15.08833232,0.000139,53.2185,147.2619,53.1283,160.847,0.0031351,0.00049952,0.0,0 STARLINK-4100,1 53144U 22083N   22252.58334491  .00049952  00000-0  31351-2 0  9996,2 53144  53.2185 147.2619 0001390  53.1283 160.8470 15.08833232  9042,6917.901,95.438,540.7280000000002,538.804,0.0
53144.0,STARLINK-4100,PAYLOAD,2022-09-09 22:00:00,15.08875486,0.0001554999999999,53.2185,145.767,52.6332,172.9515,-0.0033171999999999,-0.00052746,0.0,0 STARLINK-4100,1 53144U 22083N   22252.91667824 -.00052746  00000-0 -33172-2 0  9992,2 53144  53.2185 145.7670 0001555  52.6332 172.9515 15.08875486  1306,6917.772,95.435,540.7130000000002,538.561,0.0
53144.0,STARLINK-4100,PAYLOAD,2022-09-10 04:00:00,15.08832302,0.0001708,53.2182,144.6454,50.4322,93.8652,0.00071536,0.00011113,0.0,0 STARLINK-4100,1 53144U 22083N   22253.16667824  .00011113  00000-0  71536-3 0  9998,2 53144  53.2182 144.6454 0001708  50.4322  93.8652 15.08832302  9138,6917.904,95.438,540.95,538.587,0.0
53144.0,STARLINK-4100,PAYLOAD,2022-09-10 14:00:01,15.08799773,0.0001631999999999,53.2178,142.7731,60.414,188.3794,0.0031079999999999,0.00049469,0.0,0 STARLINK-4100,1 53144U 22083N   22253.58334491  .00049469  00000-0  31080-2 0  9999,2 53144  53.2178 142.7731 0001632  60.4140 188.3794 15.08799773  1307,6918.003000000002,95.44,540.997,538.739,0.0
53144.0,STARLINK-4100,PAYLOAD,2022-09-10 20:00:01,15.08845748,0.0001686,53.218,141.6518,59.6863,107.7755,-0.0017163,-0.00027504,0.0,0 STARLINK-4100,1 53144U 22083N   22253.83334491 -.00027504  00000-0 -17163-2 0  9991,2 53144  53.2180 141.6518 0001686  59.6863 107.7755 15.08845748  9238,6917.863,95.437,540.894,538.561,0.0
53144.0,STARLINK-4100,PAYLOAD,2022-09-10 22:00:00,15.08848338,0.0001720999999999,53.2177,141.2783,57.019,203.3467,-0.0020932,-0.00033455,0.0,0 STARLINK-4100,1 53144U 22083N   22253.91667824 -.00033455  00000-0 -20932-2 0  9999,2 53144  53.2177 141.2783 0001721  57.0190 203.3467 15.08848338  1300,6917.855,95.437,540.91,538.529,0.0
53144.0,STARLINK-4100,PAYLOAD,2022-09-11 14:00:01,15.08805181,0.0001584,53.2171,138.284,59.6335,223.9151,0.0032884,0.00052386,0.0,0 STARLINK-4100,1 53144U 22083N   22254.58334491  .00052386  00000-0  32884-2 0  9995,2 53144  53.2171 138.2840 0001584  59.6335 223.9151 15.08805181  9349,6917.986999999999,95.44,540.948,538.756,0.0
53144.0,STARLINK-4100,PAYLOAD,2022-09-11 22:00:00,15.08842973,0.0001699999999999,53.217,136.7893,55.4352,239.6898,-0.00065989,-0.00010776,0.0,0 STARLINK-4100,1 53144U 22083N   22254.91667824 -.00010776  00000-0 -65989-3 0  9993,2 53144  53.2170 136.7893 0001700  55.4352 239.6898 15.08842973  1302,6917.871,95.437,540.9119999999998,538.56,0.0
53144.0,STARLINK-4100,PAYLOAD,2022-09-12 04:00:00,15.08842377,0.0001702,53.2168,135.6674,50.8916,162.9331,-0.00014135,-2.537e-05,0.0,0 STARLINK-4100,1 53144U 22083N   22255.16667824 -.00002537  00000-0 -14135-3 0  9994,2 53144  53.2168 135.6674 0001702  50.8916 162.9331 15.08842377  9431,6917.873000000001,95.437,540.9159999999998,538.561,0.0
53144.0,STARLINK-4100,PAYLOAD,2022-09-12 14:00:01,15.08813171,0.0001534,53.2167,133.7948,57.8725,260.4578,0.0036293,0.00057904,0.0,0 STARLINK-4100,1 53144U 22083N   22255.58334491  .00057904  00000-0  36293-2 0  9995,2 53144  53.2167 133.7948 0001534  57.8725 260.4578 15.08813171  1306,6917.962,95.439,540.889,538.766,0.0
53144.0,STARLINK-4100,PAYLOAD,2022-09-12 22:00:00,15.08856462,0.0001691,53.2167,132.3,52.8225,277.0941,-0.0010505,-0.00016975,0.0,0 STARLINK-4100,1 53144U 22083N   22255.91667824 -.00016975  00000-0 -10505-2 0  9994,2 53144  53.2167 132.3000 0001691  52.8225 277.0941 15.08856462  1302,6917.83,95.437,540.865,538.525,0.0
53144.0,STARLINK-4100,PAYLOAD,2022-09-13 06:00:00,15.08871482,0.0001688,53.2167,130.8033,49.9639,291.5558,-0.0038251999999999,-0.00060706,0.0,0 STARLINK-4100,1 53144U 22083N   22256.25001157 -.00060706  00000-0 -38252-2 0  9993,2 53144  53.2167 130.8033 0001688  49.9639 291.5558 15.08871482  9596,6917.784000000002,95.436,540.817,538.481,0.0
53144.0,STARLINK-4100,PAYLOAD,2022-09-13 14:00:01,15.08808729,0.0001631999999999,53.2169,129.3054,58.6548,294.4791,0.0036054999999999,0.00057513,0.0,0 STARLINK-4100,1 53144U 22083N   22256.58334491  .00057513  00000-0  36055-2 0  9998,2 53144  53.2169 129.3054 0001632  58.6548 294.4791 15.08808729  1305,6917.976,95.44,540.97,538.712,0.0
53144.0,STARLINK-4100,PAYLOAD,2022-09-13 16:00:00,15.08832149,0.0001653,53.2169,128.9318,59.4288,26.5918,0.0016082,0.00025394,0.0,0 STARLINK-4100,1 53144U 22083N   22256.66667824  .00025394  00000-0  16082-2 0  9996,2 53144  53.2169 128.9318 0001653  59.4288  26.5918 15.08832149  9661,6917.904,95.438,540.913,538.626,0.0
53144.0,STARLINK-4100,PAYLOAD,2022-09-13 22:00:00,15.08855184,0.0001768,53.2169,127.8106,52.9225,311.7920000000001,-0.0031604,-0.00050257,0.0,0 STARLINK-4100,1 53144U 22083N   22256.91667824 -.00050257  00000-0 -31604-2 0  9999,2 53144  53.2169 127.8106 0001768  52.9225 311.7920 15.08855184  1309,6917.834,95.437,540.922,538.476,0.0
53144.0,STARLINK-4100,PAYLOAD,2022-09-14 04:00:00,15.08818269,0.0001745,53.2167,126.69,48.652,234.761,0.0016000999999999,0.00025254,0.0,0 STARLINK-4100,1 53144U 22083N   22257.16667824  .00025254  00000-0  16001-2 0  9998,2 53144  53.2167 126.6900 0001745  48.6520 234.7610 15.08818269  9739,6917.946999999999,95.439,541.019,538.605,0.0
53144.0,STARLINK-4100,PAYLOAD,2022-09-14 14:00:01,15.08812609,0.0001628,53.2173,124.8162,56.9751,330.8979,0.0030569,0.00048662,0.0,0 STARLINK-4100,1 53144U 22083N   22257.58334491  .00048662  00000-0  30569-2 0  9998,2 53144  53.2173 124.8162 0001628  56.9751 330.8979 15.08812609  9800,6917.964,95.439,540.955,538.703,0.0
53144.0,STARLINK-4100,PAYLOAD,2022-09-14 22:00:00,15.08843053,0.000179,53.2173,123.3215,51.6687,347.788,-0.00016987,-2.991e-05,0.0,0 STARLINK-4100,1 53144U 22083N   22257.91667824 -.00002991  00000-0 -16987-3 0  9990,2 53144  53.2173 123.3215 0001790  51.6687 347.7880 15.08843053  1305,6917.871,95.437,540.974,538.498,0.0
53144.0,STARLINK-4100,PAYLOAD,2022-09-15 04:00:00,15.08860578,0.0001727,53.2172,122.1992,48.0697,270.08,-0.0017731,-0.00028412,0.0,0 STARLINK-4100,1 53144U 22083N   22258.16667824 -.00028412  00000-0 -17731-2 0  9991,2 53144  53.2172 122.1992 0001727  48.0697 270.0800 15.08860578  9886,6917.816999999999,95.436,540.877,538.488,0.0
53144.0,STARLINK-4100,PAYLOAD,2022-09-15 14:00:01,15.08821275,0.0001554,53.2177,120.327,55.5204,7.1404,0.0027104,0.0004309,0.0,0 STARLINK-4100,1 53144U 22083N   22258.58334491  .00043090  00000-0  27104-2 0  9990,2 53144  53.2177 120.3270 0001554  55.5204   7.1404 15.08821275  1304,6917.938,95.439,540.878,538.7280000000002,0.0
53144.0,STARLINK-4100,PAYLOAD,2022-09-15 22:00:00,15.08850675,0.0001693,53.2177,118.8324,49.2491,25.0028,-0.00086684,-0.00014061,0.0,0 STARLINK-4100,1 53144U 22083N   22258.91667824 -.00014061  00000-0 -86684-3 0  9993,2 53144  53.2177 118.8324 0001693  49.2491  25.0028 15.08850675 10002,6917.848000000001,95.437,540.884,538.5419999999998,0.0
53144.0,STARLINK-4100,PAYLOAD,2022-09-16 14:00:01,15.08827977,0.000152,53.218,115.838,56.1003,41.3408,-0.00046744,-7.717e-05,0.0,0 STARLINK-4100,1 53144U 22083N   22259.58334491 -.00007717  00000-0 -46744-3 0  9991,2 53144  53.2180 115.8380 0001520  56.1003  41.3408 15.08827977  1305,6917.917,95.438,540.8340000000002,538.731,0.0
53144.0,STARLINK-4100,PAYLOAD,2022-09-16 22:00:00,15.08811498,0.0001710999999999,53.2179,114.3436,51.0824,57.9352,0.00012964,1.774e-05,0.0,0 STARLINK-4100,1 53144U 22083N   22259.91667824  .00001774  00000-0  12964-3 0  9999,2 53144  53.2179 114.3436 0001711  51.0824  57.9352 15.08811498  1308,6917.968000000003,95.439,541.016,538.649,0.0
53144.0,STARLINK-4100,PAYLOAD,2022-09-17 06:00:00,15.08832947,0.0001636999999999,53.2177,112.8466,51.8216,68.7515,-0.0016684,-0.00026737,0.0,0 STARLINK-4100,1 53144U 22083N   22260.25001157 -.00026737  00000-0 -16684-2 0  9999,2 53144  53.2177 112.8466 0001637  51.8216  68.7515 15.08832947 10204,6917.901999999999,95.438,540.899,538.634,0.0
53144.0,STARLINK-4100,PAYLOAD,2022-09-17 14:00:01,15.08820773,0.0001563,53.218,111.3494,59.1189,73.0274,0.0015089,0.00023795,0.0,0 STARLINK-4100,1 53144U 22083N   22260.58334491  .00023795  00000-0  15089-2 0  9992,2 53144  53.2180 111.3494 0001563  59.1189  73.0274 15.08820773  1307,6917.939,95.439,540.885,538.7230000000002,0.0
53144.0,STARLINK-4100,PAYLOAD,2022-09-17 22:00:00,15.08823807,0.0001715,53.2178,109.8551,52.4049,91.3228,0.00049596,7.611e-05,0.0,0 STARLINK-4100,1 53144U 22083N   22260.91667824  .00007611  00000-0  49596-3 0  9998,2 53144  53.2178 109.8551 0001715  52.4049  91.3228 15.08823807 10303,6917.93,95.439,540.981,538.6080000000002,0.0
53144.0,STARLINK-4100,PAYLOAD,2022-09-18 14:00:01,15.08842335,0.0001595,53.2177,106.8608,60.7059,106.2538,0.0010758,0.00016876,0.0,0 STARLINK-4100,1 53144U 22083N   22261.58335648  .00016876  00000-0  10758-2 0  9998,2 53144  53.2177 106.8608 0001595  60.7059 106.2538 15.08842335  1308,6917.873000000001,95.437,540.842,538.635,0.0
